     2              NAVIGATION DATA                         RINEX VERSION / TYPE
CCRINEXN V1.6.0 UX  CDDIS               07-SEP-16 15:33     PGM / RUN BY / DATE 
IGS BROADCAST EPHEMERIS FILE                                COMMENT             
    0.1024D-07  0.2235D-07 -0.5960D-07 -0.1192D-06          ION ALPHA           
    0.9421D+05  0.9830D+05 -0.1311D+06 -0.5243D+06          ION BETA            
    0.931322574615D-09-0.177635683940D-14   319488     1913 DELTA-UTC: A0,A1,T,W
    17                                                      LEAP SECONDS        
                                                            END OF HEADER       
 3 16  9  6  4  0  0.0-0.854036770761D-04-0.238742359215D-11 0.000000000000D+00
    0.500000000000D+01-0.339375000000D+02 0.455090384913D-08 0.808907194026D+00
   -0.181980431080D-05 0.160050462000D-03 0.979378819466D-05 0.515362986755D+04
    0.187200000000D+06 0.186264514923D-07-0.299635999543D+01 0.186264514923D-07
    0.959863558673D+00 0.194375000000D+03 0.148243062690D-01-0.797640367780D-08
   -0.230366738556D-09 0.100000000000D+01 0.191300000000D+04 0.000000000000D+00
    0.200000000000D+01 0.000000000000D+00 0.139698386192D-08 0.500000000000D+01
    0.186270000000D+06 0.400000000000D+01 0.000000000000D+00 0.000000000000D+00
 4 16  9  6  4  0  0.0-0.260613858700D-03-0.227373675443D-12 0.000000000000D+00
    0.103000000000D+03-0.444687500000D+02 0.513735684868D-08-0.161616142667D+01
   -0.233389437199D-05 0.844005984254D-02 0.921264290810D-05 0.515367563438D+04
    0.187200000000D+06 0.165775418282D-06 0.168761433797D+00-0.111758708954D-07
    0.983381322922D+00 0.215000000000D+03 0.900187860598D+00-0.767710549654D-08
   -0.330728061866D-09 0.100000000000D+01 0.191300000000D+04 0.000000000000D+00
    0.400000000000D+01 0.630000000000D+02-0.195577740669D-07 0.103000000000D+03
    0.180060000000D+06 0.400000000000D+01 0.000000000000D+00 0.000000000000D+00
 5 16  9  6  4  0  0.0-0.930242240429D-04 0.261479726760D-11 0.000000000000D+00
    0.590000000000D+02-0.445000000000D+02 0.481055752189D-08-0.193589347394D+01
   -0.262819230556D-05 0.473235954996D-02 0.917725265026D-05 0.515359358787D+04
    0.187200000000D+06 0.186264514923D-08-0.300961948259D+01-0.894069671631D-07
    0.946900302176D+00 0.192593750000D+03 0.496208286347D+00-0.811176645906D-08
   -0.127148153374D-09 0.100000000000D+01 0.191300000000D+04 0.000000000000D+00
    0.200000000000D+01 0.000000000000D+00-0.107102096081D-07 0.590000000000D+02
    0.180000000000D+06 0.400000000000D+01 0.000000000000D+00 0.000000000000D+00
 6 16  9  6  4  0  0.0 0.242538284510D-03 0.511590769747D-11 0.000000000000D+00
    0.330000000000D+02-0.103750000000D+02 0.458911972669D-08 0.180326658776D+01
   -0.402331352234D-06 0.215804786421D-03 0.508874654770D-05 0.515375487709D+04
    0.187200000000D+06 0.149011611938D-07 0.223693980902D+01-0.298023223877D-07
    0.964923397321D+00 0.281750000000D+03-0.146412431374D+01-0.819962726167D-08
    0.142863093678D-09 0.100000000000D+01 0.191300000000D+04 0.000000000000D+00
    0.200000000000D+01 0.000000000000D+00 0.419095158577D-08 0.330000000000D+02
    0.180000000000D+06 0.400000000000D+01 0.000000000000D+00 0.000000000000D+00
 7 16  9  6  4  0  0.0 0.429433304817D-03-0.284217094304D-11 0.000000000000D+00
    0.680000000000D+02 0.150000000000D+02 0.490770442559D-08 0.738216815614D+00
    0.935047864914D-06 0.998178892769D-02 0.381655991077D-05 0.515362805748D+04
    0.187200000000D+06-0.130385160446D-07-0.879164608666D+00 0.763684511185D-07
    0.965072753943D+00 0.305718750000D+03-0.263572140273D+01-0.854392731744D-08
   -0.205722854897D-09 0.100000000000D+01 0.191300000000D+04 0.000000000000D+00
    0.200000000000D+01 0.000000000000D+00-0.111758708954D-07 0.680000000000D+02
    0.180000000000D+06 0.400000000000D+01 0.000000000000D+00 0.000000000000D+00
 8 16  9  6  4  0  0.0-0.307192094624D-04-0.136424205266D-11 0.000000000000D+00
    0.340000000000D+02 0.256875000000D+02 0.430732227440D-08-0.191983011995D+01
    0.135041773319D-05 0.171087111812D-02 0.947341322899D-05 0.515374587059D+04
    0.187200000000D+06 0.931322574616D-08 0.118365547653D+01 0.726431608200D-07
    0.964063603793D+00 0.199062500000D+03-0.102660251636D+01-0.800854787388D-08
    0.327870799992D-09 0.100000000000D+01 0.191300000000D+04 0.000000000000D+00
    0.200000000000D+01 0.000000000000D+00 0.512227416039D-08 0.340000000000D+02
    0.180000000000D+06 0.400000000000D+01 0.000000000000D+00 0.000000000000D+00
 9 16  9  6  4  0  0.0 0.200882554054D-03 0.727595761418D-11 0.000000000000D+00
    0.180000000000D+02 0.690000000000D+02 0.477484185524D-08-0.279520243972D+01
    0.361725687981D-05 0.510258600116D-03 0.944547355175D-05 0.515379507065D+04
    0.187200000000D+06 0.186264514923D-08-0.195801040489D+01 0.279396772385D-07
    0.954404726673D+00 0.194531250000D+03 0.205908946415D+01-0.813926792631D-08
    0.297869562349D-09 0.100000000000D+01 0.191300000000D+04 0.000000000000D+00
    0.200000000000D+01 0.000000000000D+00 0.139698386192D-08 0.180000000000D+02
    0.180000000000D+06 0.000000000000D+00 0.000000000000D+00 0.000000000000D+00
10 16  9  6  4  0  0.0-0.938787125051D-04-0.500222085975D-11 0.000000000000D+00
    0.290000000000D+02-0.315312500000D+02 0.448518682603D-08-0.763364659739D+00
   -0.162981450558D-05 0.169821956661D-02 0.981800258160D-05 0.515368286323D+04
    0.187200000000D+06 0.130385160446D-07-0.300027895693D+01 0.521540641785D-07
    0.960083073919D+00 0.188250000000D+03-0.282410490113D+01-0.798211820155D-08
   -0.165364030933D-09 0.100000000000D+01 0.191300000000D+04 0.000000000000D+00
    0.200000000000D+01 0.000000000000D+00 0.232830643654D-08 0.290000000000D+02
    0.180000000000D+06 0.400000000000D+01 0.000000000000D+00 0.000000000000D+00
11 16  9  6  4  0  0.0-0.663035549223D-03-0.204636307899D-11 0.000000000000D+00
    0.490000000000D+02 0.190937500000D+02 0.631347726738D-08 0.845160941671D+00
    0.813975930214D-06 0.167983971769D-01 0.531785190105D-05 0.515367058373D+04
    0.187200000000D+06-0.178813934326D-06 0.186108955275D+01-0.165775418282D-06
    0.897526970607D+00 0.246875000000D+03 0.156860103682D+01-0.931467370783D-08
    0.210008747707D-09 0.100000000000D+01 0.191300000000D+04 0.000000000000D+00
    0.280000000000D+01 0.000000000000D+00-0.121071934700D-07 0.490000000000D+02
    0.180000000000D+06 0.400000000000D+01 0.000000000000D+00 0.000000000000D+00
12 16  9  6  4  0  0.0 0.388390384614D-03 0.341060513165D-12 0.000000000000D+00
    0.710000000000D+02-0.444062500000D+02 0.379980113411D-08 0.137303178429D+00
   -0.234134495258D-05 0.604813836981D-02 0.898912549019D-05 0.515366969299D+04
    0.187200000000D+06-0.149011611938D-07 0.198775388181D+00 0.838190317154D-07
    0.990457010019D+00 0.220593750000D+03 0.789016830244D+00-0.780746806953D-08
   -0.330370904131D-09 0.100000000000D+01 0.191300000000D+04 0.000000000000D+00
    0.290000000000D+01 0.000000000000D+00-0.125728547573D-07 0.710000000000D+02
    0.180000000000D+06 0.400000000000D+01 0.000000000000D+00 0.000000000000D+00
13 16  9  6  4  0  0.0-0.420357100666D-04-0.227373675443D-11 0.000000000000D+00
    0.220000000000D+02 0.637187500000D+02 0.442375569575D-08 0.171186257671D+01
    0.331737101078D-05 0.402471562848D-02 0.866875052452D-05 0.515368577576D+04
    0.187200000000D+06 0.689178705216D-07-0.183570013258D+01-0.540167093277D-07
    0.970629006045D+00 0.218281250000D+03 0.196495300887D+01-0.791104381244D-08
    0.283226083218D-09 0.100000000000D+01 0.191300000000D+04 0.000000000000D+00
    0.200000000000D+01 0.000000000000D+00-0.111758708954D-07 0.220000000000D+02
    0.180000000000D+06 0.400000000000D+01 0.000000000000D+00 0.000000000000D+00
14 16  9  6  4  0  0.0-0.336100347340D-04-0.193267624127D-11 0.000000000000D+00
    0.940000000000D+02 0.770625000000D+02 0.449411576939D-08 0.310368591970D+01
    0.391155481338D-05 0.894052954391D-02 0.849552452564D-05 0.515405893707D+04
    0.187200000000D+06 0.102445483208D-06-0.187341049020D+01-0.128522515297D-06
    0.963147509863D+00 0.215343750000D+03-0.195225169809D+01-0.791068665471D-08
    0.252510518077D-09 0.100000000000D+01 0.191300000000D+04 0.000000000000D+00
    0.200000000000D+01 0.000000000000D+00-0.931322574616D-08 0.940000000000D+02
    0.180000000000D+06 0.400000000000D+01 0.000000000000D+00 0.000000000000D+00
15 16  9  6  4  0  0.0-0.326229725033D-03-0.147792889038D-11 0.000000000000D+00
    0.250000000000D+02 0.621562500000D+02 0.522986070183D-08 0.279661187790D+01
    0.327080488205D-05 0.840803491883D-02 0.925734639168D-05 0.515366525269D+04
    0.187200000000D+06-0.912696123123D-07-0.201311001768D+01-0.122934579849D-06
    0.930142549245D+00 0.186093750000D+03 0.496162072765D+00-0.820927052050D-08
    0.272154193457D-09 0.100000000000D+01 0.191300000000D+04 0.000000000000D+00
    0.200000000000D+01 0.000000000000D+00-0.107102096081D-07 0.250000000000D+02
    0.180000000000D+06 0.400000000000D+01 0.000000000000D+00 0.000000000000D+00
16 16  9  6  4  0  0.0 0.493600964546D-05 0.193267624127D-11 0.000000000000D+00
    0.102000000000D+03-0.505937500000D+02 0.366622421311D-08-0.184128275378D+01
   -0.260584056377D-05 0.867025798652D-02 0.965222716332D-05 0.515356324959D+04
    0.187200000000D+06 0.558793544769D-07 0.217567640303D+00-0.633299350738D-07
    0.990955394024D+00 0.208843750000D+03 0.388370890807D+00-0.763210383781D-08
   -0.238938535624D-09 0.100000000000D+01 0.191300000000D+04 0.000000000000D+00
    0.200000000000D+01 0.000000000000D+00-0.107102096081D-07 0.102000000000D+03
    0.180000000000D+06 0.000000000000D+00 0.000000000000D+00 0.000000000000D+00
